start=new Date('2023-06-02T00:00:00.000Z').valueOf();
sats=[{"MEAN_MOTION_DOT":"-0.00000995","REV_AT_EPOCH":"7751","SEMIMAJOR_AXIS":"6917.863","GP_ID":"232997601","MEAN_MOTION":"15.08845585","EPOCH":"2023-06-01T22:14:57.449184","RA_OF_ASC_NODE":"30.9862","CENTER_NAME":"EARTH","OBJECT_ID":"2022-001AB","BSTAR":"-0.00004442400000","PERIAPSIS":"538.912","MEAN_ANOMALY":"261.1247","TLE_LINE2":"2 50828  53.2188  30.9862 0001180  98.9879 261.1247 15.08845585 77512","ECCENTRICITY":"0.00011800","NORAD_CAT_ID":"50828","RCS_SIZE":"LARGE","DECAY_DATE":null,"APOAPSIS":"540.545","SITE":"AFETR","LAUNCH_DATE":"2022-01-06","INCLINATION":"53.2188","REF_FRAME":"TEME","MEAN_ELEMENT_THEORY":"SGP4","OBJECT_TYPE":"PAYLOAD","EPHEMERIS_TYPE":"0","TLE_LINE1":"1 50828U 22001AB  23152.92705381 -.00000995  00000-0 -44424-4 0  9993","MEAN_MOTION_DDOT":"0.0000000000000","TIME_SYSTEM":"UTC","FILE":"3922718","ELEMENT_SET_NO":"999","ARG_OF_PERICENTER":"98.9879","PERIOD":"95.437","OBJECT_NAME":"STARLINK-3290","COUNTRY_CODE":"US","CLASSIFICATION_TYPE":"U"},{"COUNTRY_CODE":"US","OBJECT_NAME":"STARLINK-3294","CLASSIFICATION_TYPE":"U","MEAN_MOTION_DDOT":"0.0000000000000","ARG_OF_PERICENTER":"77.1628","PERIOD":"95.438","TIME_SYSTEM":"UTC","ELEMENT_SET_NO":"999","FILE":"3922718","OBJECT_TYPE":"PAYLOAD","MEAN_ELEMENT_THEORY":"SGP4","EPHEMERIS_TYPE":"0","TLE_LINE1":"1 50829U 22001AC  23152.94819310 -.00000131  00000-0  98430-5 0  9992","REF_FRAME":"TEME","SITE":"AFETR","APOAPSIS":"540.566","LAUNCH_DATE":"2022-01-06","INCLINATION":"53.2167","ECCENTRICITY":"0.00011720","NORAD_CAT_ID":"50829","TLE_LINE2":"2 50829  53.2167  31.0062 0001172  77.1628 282.9495 15.08836685 77669","DECAY_DATE":null,"RCS_SIZE":"LARGE","BSTAR":"0.00000984300000","MEAN_ANOMALY":"282.9495","PERIAPSIS":"538.945","CENTER_NAME":"EARTH","MEAN_MOTION":"15.08836685","EPOCH":"2023-06-01T22:45:23.883840","RA_OF_ASC_NODE":"31.0062","OBJECT_ID":"2022-001AC","REV_AT_EPOCH":"7766","SEMIMAJOR_AXIS":"6917.891","MEAN_MOTION_DOT":"-0.00000131","GP_ID":"232996349"},{"MEAN_MOTION_DDOT":"0.0000000000000","TIME_SYSTEM":"UTC","ELEMENT_SET_NO":"999","FILE":"3922718","ARG_OF_PERICENTER":"92.4735","PERIOD":"95.437","CLASSIFICATION_TYPE":"U","COUNTRY_CODE":"US","OBJECT_NAME":"STARLINK-3278","APOAPSIS":"540.595","SITE":"AFETR","LAUNCH_DATE":"2022-01-06","INCLINATION":"53.2178","REF_FRAME":"TEME","OBJECT_TYPE":"PAYLOAD","MEAN_ELEMENT_THEORY":"SGP4","TLE_LINE1":"1 50830U 22001AD  23152.89942873 -.00000151  00000-0  86228-5 0  9993","EPHEMERIS_TYPE":"0","BSTAR":"0.00000862280000","PERIAPSIS":"538.863","MEAN_ANOMALY":"267.6401","TLE_LINE2":"2 50830  53.2178  41.2266 0001252  92.4735 267.6401 15.08845270 77522","ECCENTRICITY":"0.00012520","NORAD_CAT_ID":"50830","RCS_SIZE":"LARGE","DECAY_DATE":null,"MEAN_MOTION_DOT":"-0.00000151","REV_AT_EPOCH":"7752","SEMIMAJOR_AXIS":"6917.864","GP_ID":"232996599","EPOCH":"2023-06-01T21:35:10.642272","MEAN_MOTION":"15.08845270","RA_OF_ASC_NODE":"41.2266","CENTER_NAME":"EARTH","OBJECT_ID":"2022-001AD"},{"OBJECT_TYPE":"PAYLOAD","MEAN_ELEMENT_THEORY":"SGP4","EPHEMERIS_TYPE":"0","TLE_LINE1":"1 50831U 22001AE  23152.91139988  .00001133  00000-0  89218-4 0  9993","REF_FRAME":"TEME","SITE":"AFETR","APOAPSIS":"540.575","LAUNCH_DATE":"2022-01-06","INCLINATION":"53.2177","OBJECT_NAME":"STARLINK-3299","COUNTRY_CODE":"US","CLASSIFICATION_TYPE":"U","MEAN_MOTION_DDOT":"0.0000000000000","ARG_OF_PERICENTER":"90.1012","PERIOD":"95.437","TIME_SYSTEM":"UTC","FILE":"3922718","ELEMENT_SET_NO":"999","CENTER_NAME":"EARTH","MEAN_MOTION":"15.08845677","EPOCH":"2023-06-01T21:52:24.949632","RA_OF_ASC_NODE":"31.2317","OBJECT_ID":"2022-001AE","REV_AT_EPOCH":"7766","SEMIMAJOR_AXIS":"6917.863","MEAN_MOTION_DOT":"0.00001133","GP_ID":"232996851","ECCENTRICITY":"0.00012240","NORAD_CAT_ID":"50831","TLE_LINE2":"2 50831  53.2177  31.2317 0001224  90.1012 270.0120 15.08845677 77662","RCS_SIZE":"LARGE","DECAY_DATE":null,"BSTAR":"0.00008921800000","MEAN_ANOMALY":"270.0120","PERIAPSIS":"538.881"},{"OBJECT_ID":"2022-001AF","EPOCH":"2023-06-01T21:29:52.841472","MEAN_MOTION":"15.08844574","RA_OF_ASC_NODE":"41.2371","CENTER_NAME":"EARTH","GP_ID":"232974416","MEAN_MOTION_DOT":"-0.00000353","REV_AT_EPOCH":"7877","SEMIMAJOR_AXIS":"6917.866","RCS_SIZE":"LARGE","DECAY_DATE":null,"TLE_LINE2":"2 50832  53.2183  41.2371 0001225  94.9280 265.1852 15.08844574 78776","ECCENTRICITY":"0.00012250","NORAD_CAT_ID":"50832","PERIAPSIS":"538.884","MEAN_ANOMALY":"265.1852","BSTAR":"-0.00000409880000","REF_FRAME":"TEME","OBJECT_TYPE":"PAYLOAD","MEAN_ELEMENT_THEORY":"SGP4","TLE_LINE1":"1 50832U 22001AF  23152.89575048 -.00000353  00000-0 -40988-5 0  9999","EPHEMERIS_TYPE":"0","LAUNCH_DATE":"2022-01-06","INCLINATION":"53.2183","APOAPSIS":"540.579","SITE":"AFETR","OBJECT_NAME":"STARLINK-3328","COUNTRY_CODE":"US","CLASSIFICATION_TYPE":"U","TIME_SYSTEM":"UTC","ELEMENT_SET_NO":"999","FILE":"3922678","ARG_OF_PERICENTER":"94.9280","PERIOD":"95.437","MEAN_MOTION_DDOT":"0.0000000000000"},{"COUNTRY_CODE":"US","CLASSIFICATION_TYPE":"U","OBJECT_NAME":"STARLINK-3316","MEAN_MOTION_DDOT":"0.0000000000000","FILE":"3922718","ELEMENT_SET_NO":"999","TIME_SYSTEM":"UTC","PERIOD":"94.894","ARG_OF_PERICENTER":"113.7848","REF_FRAME":"TEME","TLE_LINE1":"1 50833U 22001AG  23152.92470839 -.00005299  00000-0 -24610-3 0  9992","EPHEMERIS_TYPE":"0","MEAN_ELEMENT_THEORY":"SGP4","OBJECT_TYPE":"PAYLOAD","APOAPSIS":"513.904","SITE":"AFETR","INCLINATION":"53.2187","LAUNCH_DATE":"2022-01-06","TLE_LINE2":"2 50833  53.2187  25.7051 0000630 113.7848 246.3214 15.17477426 77749","NORAD_CAT_ID":"50833","ECCENTRICITY":"0.00006300","RCS_SIZE":"LARGE","DECAY_DATE":null,"BSTAR":"-0.00024610000000","PERIAPSIS":"513.035","MEAN_ANOMALY":"246.3214","RA_OF_ASC_NODE":"25.7051","MEAN_MOTION":"15.17477426","EPOCH":"2023-06-01T22:11:34.804896","CENTER_NAME":"EARTH","OBJECT_ID":"2022-001AG","MEAN_MOTION_DOT":"-0.00005299","SEMIMAJOR_AXIS":"6891.605","REV_AT_EPOCH":"7774","GP_ID":"232995850"},{"CENTER_NAME":"EARTH","RA_OF_ASC_NODE":"40.9877","EPOCH":"2023-06-01T22:49:22.385856","MEAN_MOTION":"15.08840959","OBJECT_ID":"2022-001AH","SEMIMAJOR_AXIS":"6917.877","REV_AT_EPOCH":"7752","MEAN_MOTION_DOT":"0.00001065","GP_ID":"232996100","NORAD_CAT_ID":"50834","ECCENTRICITY":"0.00013500","TLE_LINE2":"2 50834  53.2173  40.9877 0001350 113.4880 246.6254 15.08840959 77521","DECAY_DATE":null,"RCS_SIZE":"LARGE","BSTAR":"0.00008501900000","MEAN_ANOMALY":"246.6254","PERIAPSIS":"538.809","TLE_LINE1":"1 50834U 22001AH  23152.95095354  .00001065  00000-0  85019-4 0  9997","EPHEMERIS_TYPE":"0","OBJECT_TYPE":"PAYLOAD","MEAN_ELEMENT_THEORY":"SGP4","REF_FRAME":"TEME","SITE":"AFETR","APOAPSIS":"540.676","INCLINATION":"53.2173","LAUNCH_DATE":"2022-01-06","OBJECT_NAME":"STARLINK-3331","COUNTRY_CODE":"US","CLASSIFICATION_TYPE":"U","MEAN_MOTION_DDOT":"0.0000000000000","PERIOD":"95.437","ARG_OF_PERICENTER":"113.4880","FILE":"3922718","ELEMENT_SET_NO":"999","TIME_SYSTEM":"UTC"},{"ARG_OF_PERICENTER":"85.9529","PERIOD":"95.437","TIME_SYSTEM":"UTC","FILE":"3922718","ELEMENT_SET_NO":"999","MEAN_MOTION_DDOT":"0.0000000000000","OBJECT_NAME":"STARLINK-3310","COUNTRY_CODE":"US","CLASSIFICATION_TYPE":"U","LAUNCH_DATE":"2022-01-06","INCLINATION":"53.2176","SITE":"AFETR","APOAPSIS":"540.539","OBJECT_TYPE":"PAYLOAD","MEAN_ELEMENT_THEORY":"SGP4","EPHEMERIS_TYPE":"0","TLE_LINE1":"1 50835U 22001AJ  23152.94455109  .00000733  00000-0  64099-4 0  9991","REF_FRAME":"TEME","MEAN_ANOMALY":"274.1596","PERIAPSIS":"538.938","BSTAR":"0.00006409900000","DECAY_DATE":null,"RCS_SIZE":"LARGE","ECCENTRICITY":"0.00011570","NORAD_CAT_ID":"50835","TLE_LINE2":"2 50835  53.2176  41.0291 0001157  85.9529 274.1596 15.08842158 77523","GP_ID":"232997351","REV_AT_EPOCH":"7752","SEMIMAJOR_AXIS":"6917.874","MEAN_MOTION_DOT":"0.00000733","OBJECT_ID":"2022-001AJ","CENTER_NAME":"EARTH","EPOCH":"2023-06-01T22:40:09.214176","MEAN_MOTION":"15.08842158","RA_OF_ASC_NODE":"41.0291"},{"NORAD_CAT_ID":"50836","ECCENTRICITY":"0.00012200","TLE_LINE2":"2 50836  53.2178  40.9738 0001220  90.8618 269.2514 15.08841154 77424","RCS_SIZE":"LARGE","DECAY_DATE":null,"BSTAR":"0.00008306500000","MEAN_ANOMALY":"269.2514","PERIAPSIS":"538.898","CENTER_NAME":"EARTH","RA_OF_ASC_NODE":"40.9738","MEAN_MOTION":"15.08841154","EPOCH":"2023-06-01T22:54:40.387968","OBJECT_ID":"2022-001AK","SEMIMAJOR_AXIS":"6917.877","REV_AT_EPOCH":"7742","MEAN_MOTION_DOT":"0.00001034","GP_ID":"232997602","CLASSIFICATION_TYPE":"U","COUNTRY_CODE":"US","OBJECT_NAME":"STARLINK-3330","MEAN_MOTION_DDOT":"0.0000000000000","PERIOD":"95.437","ARG_OF_PERICENTER":"90.8618","FILE":"3922718","ELEMENT_SET_NO":"999","TIME_SYSTEM":"UTC","EPHEMERIS_TYPE":"0","TLE_LINE1":"1 50836U 22001AK  23152.95463412  .00001034  00000-0  83065-4 0  9998","MEAN_ELEMENT_THEORY":"SGP4","OBJECT_TYPE":"PAYLOAD","REF_FRAME":"TEME","SITE":"AFETR","APOAPSIS":"540.586","INCLINATION":"53.2178","LAUNCH_DATE":"2022-01-06"},{"TLE_LINE2":"2 50837  53.2168  31.1436 0002555 162.4138 197.6943 15.08841531 77661","ECCENTRICITY":"0.00025550","NORAD_CAT_ID":"50837","RCS_SIZE":"LARGE","DECAY_DATE":null,"BSTAR":"-0.00008838600000","PERIAPSIS":"537.973","MEAN_ANOMALY":"197.6943","EPOCH":"2023-06-01T21:57:40.966272","MEAN_MOTION":"15.08841531","RA_OF_ASC_NODE":"31.1436","CENTER_NAME":"EARTH","OBJECT_ID":"2022-001AL","MEAN_MOTION_DOT":"-0.00001695","REV_AT_EPOCH":"7766","SEMIMAJOR_AXIS":"6917.876","GP_ID":"232996350","COUNTRY_CODE":"US","OBJECT_NAME":"STARLINK-3318","CLASSIFICATION_TYPE":"U","MEAN_MOTION_DDOT":"0.0000000000000","TIME_SYSTEM":"UTC","FILE":"3922718","ELEMENT_SET_NO":"999","ARG_OF_PERICENTER":"162.4138","PERIOD":"95.437","REF_FRAME":"TEME","MEAN_ELEMENT_THEORY":"SGP4","OBJECT_TYPE":"PAYLOAD","EPHEMERIS_TYPE":"0","TLE_LINE1":"1 50837U 22001AL  23152.91505748 -.00001695  00000-0 -88386-4 0  9990","APOAPSIS":"541.508","SITE":"AFETR","LAUNCH_DATE":"2022-01-06","INCLINATION":"53.2168"}];
